GONETS-M 19             
1 46488U 20068C   26169.59743697  .00000030  00000+0  14320-3 0  9995
2 46488  82.4964 346.1924 0014211  46.8950 313.3316 12.42892232259422
DEKART                  
1 46493U 20068H   26169.57364977  .00009309  00000+0  25638-3 0  9991
2 46493  97.8739 178.9430 0006967 279.9385  80.1072 15.37375280315989
NORBI                   
1 46494U 20068J   26169.57870885  .00018076  00000+0  34136-3 0  9996
2 46494  97.8620 185.6661 0004978 239.0275 121.0486 15.48502060316429
SALSAT                  
1 46495U 20068K   26169.45370448  .00006100  00000+0  21401-3 0  9990
2 46495  97.8850 172.5955 0007986 302.8690  57.1780 15.29814902315557
ICEYE-X6                
1 46497U 20068M   26169.58799932  .00002580  00000+0  18881-3 0  9995
2 46497  98.0979 163.3263 0008836  86.8993 273.3242 15.04532186313449
NETSAT-4                
1 46504U 20068U   26168.96738356  .00014505  00000+0  32135-3 0  9996
2 46504  97.8602 177.2709 0003746 334.9225  25.1839 15.43886308315894
NETSAT-3                
1 46505U 20068V   26168.97425815  .00015908  00000+0  36637-3 0  9990
2 46505  97.8650 175.4935 0004105 358.6628   1.4606 15.42703106315802
NETSAT-1                
1 46506U 20068W   26169.43948322  .00009731  00000+0  29212-3 0  9994
2 46506  97.8747 170.3121 0004889  28.7816 331.3694 15.34667272315495
NETSAT-2                
1 46507U 20068X   26169.45942466  .00018392  00000+0  37804-3 0  9999
2 46507  97.8610 177.7012 0003287  23.2689 336.8708 15.46044422315938
TIANQI-6                
1 46810U 20076D   26169.33043120  .00002792  00000+0  18344-3 0  9996
2 46810  35.0000  41.4479 0010124 185.1976 174.8630 15.07188941308759
KSM1-C                  
1 46906U 20081B   26169.59857088  .00008207  00000+0  30800-3 0  9990
2 46906  36.8962  50.2285 0003305 257.0378 103.0003 15.26761639309382
KSM1-D                  
1 46907U 20081C   26169.60214253  .00006317  00000+0  25288-3 0  9998
2 46907  36.8968  59.2441 0005157 273.0338  86.9820 15.24737529309311
KSM1-A                  
1 46912U 20081H   26169.60251480  .00007093  00000+0  27310-3 0  9997
2 46912  36.8975  52.6081 0004458 311.7321  48.3047 15.25977957309390
R2                      
1 46913U 20081J   26169.36253071  .00005629  00000+0  22094-3 0  9996
2 46913  36.8985  54.0733 0009138 291.7931  68.1846 15.25440507312168
KSM1-B                  
1 46914U 20081K   26169.40931590  .00005619  00000+0  22679-3 0  9999
2 46914  36.9022  61.0388 0006829 289.0286  70.9723 15.24522382312372
GONETS-M 20             
1 47227U 20091A   26169.61597701  .00000002  00000+0 -59824-4 0  9998
2 47227  82.5052 301.5471 0021255 174.7975 185.3330 12.42893412251256
GONETS-M 21             
1 47228U 20091B   26169.58984552  .00000053  00000+0  30880-3 0  9994
2 47228  82.4977 300.2696 0014828 187.7655 172.3198 12.42886703251246
GONETS-M 22             
1 47229U 20091C   26169.64343597  .00000019  00000+0  68778-4 0  9990
2 47229  82.5034 301.1356 0022203 170.1868 189.9650 12.42892713251204
CUBEL                   
1 47448U 21006AM  26169.39544117  .00015337  00000+0  37002-3 0  9997
2 47448  97.2326 219.9679 0007337 158.0430 202.1133 15.41271823299941
ARKTIKA-M 1             
1 47719U 21016A   26168.49069990 -.00000210  00000+0  00000+0 0  9999
2 47719  63.2922  57.5948 7288528 269.9420  14.6012  2.00622504 38796
STARLINK-2342           
1 47883U 21021Z   26169.37671903  .00138150  00000+0  67602-3 0  9997
2 47883  53.1544 142.1109 0001783 129.0601 231.0581 15.81389551292098
GRUS-1B                 
1 47934U 21022C   26169.64569360  .00000328  00000+0  31817-4 0  9993
2 47934  97.5402  52.7979 0015336 322.6056  37.4099 14.98887536286116
UNISAT-7                
1 47945U 21022P   26169.45858653  .00011219  00000+0  27811-3 0  9999
2 47945  97.3887  74.3961 0011039  74.9006 285.3461 15.40496251290055
GLOBAL-9                
1 47971U 21023G   26169.54515950  .00016855  00000+0  33668-3 0  9997
2 47971  44.9804 242.8949 0004632 324.7391  35.3192 15.46654442295157
AII-BRAVO               
1 48270U 21034C   26169.41894909  .00003270  00000+0  24423-3 0  9998
2 48270  97.5627 224.3015 0004102 253.0682 107.0094 15.03491014279804
TYVAK-182A              
1 48271U 21034D   26169.12747332  .00003526  00000+0  24494-3 0  9996
2 48271  97.5711 228.0286 0005011 338.7794  21.3225 15.06170060279975
CSS (TIANHE)            
1 48274U 21035A   26169.57665716  .00018077  00000+0  21350-3 0  9999
2 48274  41.4698 313.5456 0007383  89.2734 270.8951 15.60863218293387
TYVAK-0130              
1 48606U 21041BF  26169.02668500  .00005014  00000+0  19608-3 0  9999
2 48606  52.9943  22.1876 0010316 164.5906 195.5407 15.27570050280515
