OBJECT_NAME,OBJECT_ID,EPOCH,MEAN_MOTION,ECCENTRICITY,INCLINATION,RA_OF_ASC_NODE,ARG_OF_PERICENTER,MEAN_ANOMALY,EPHEMERIS_TYPE,CLASSIFICATION_TYPE,NORAD_CAT_ID,ELEMENT_SET_NO,REV_AT_EPOCH,BSTAR,MEAN_MOTION_DOT,MEAN_MOTION_DDOT
GONETS-M 19,2020-068C,2026-06-18T14:20:18.554208,12.42892232,.00142119,82.4964,346.1924,46.8950,313.3316,0,U,46488,999,25942,.14319537E-3,.3E-6,0
DEKART,2020-068H,2026-06-18T13:46:03.340128,15.37375280,.00069673,97.8739,178.9430,279.9385,80.1072,0,U,46493,999,31598,.25637728E-3,.9309E-4,0
NORBI,2020-068J,2026-06-18T13:53:20.444640,15.48502060,.00049781,97.8620,185.6661,239.0275,121.0486,0,U,46494,999,31642,.34135882E-3,.18076E-3,0
SALSAT,2020-068K,2026-06-18T10:53:20.067072,15.29814902,.00079869,97.8850,172.5955,302.8690,57.1780,0,U,46495,999,31555,.21400854E-3,.61E-4,0
ICEYE-X6,2020-068M,2026-06-18T14:06:43.141248,15.04532186,.00088367,98.0979,163.3263,86.8993,273.3242,0,U,46497,999,31344,.18881298E-3,.258E-4,0
NETSAT-4,2020-068U,2026-06-17T23:13:01.939584,15.43886308,.00037463,97.8602,177.2709,334.9225,25.1839,0,U,46504,999,31589,.32135229E-3,.14505E-3,0
NETSAT-3,2020-068V,2026-06-17T23:22:55.904160,15.42703106,.00041054,97.8650,175.4935,358.6628,1.4606,0,U,46505,999,31580,.36637403E-3,.15908E-3,0
NETSAT-1,2020-068W,2026-06-18T10:32:51.350208,15.34667272,.00048891,97.8747,170.3121,28.7816,331.3694,0,U,46506,999,31549,.29212074E-3,.9731E-4,0
NETSAT-2,2020-068X,2026-06-18T11:01:34.290624,15.46044422,.00032879,97.8610,177.7012,23.2689,336.8708,0,U,46507,999,31593,.37804046E-3,.18392E-3,0
TIANQI-6,2020-076D,2026-06-18T07:55:49.255680,15.07188941,.00101241,35.0000,41.4479,185.1976,174.8630,0,U,46810,999,30875,.18343632E-3,.2792E-4,0
KSM1-C,2020-081B,2026-06-18T14:21:56.524032,15.26761639,.00033052,36.8962,50.2285,257.0378,103.0003,0,U,46906,999,30938,.30799748E-3,.8207E-4,0
KSM1-D,2020-081C,2026-06-18T14:27:05.114592,15.24737529,.00051571,36.8968,59.2441,273.0338,86.9820,0,U,46907,999,30931,.25288238E-3,.6317E-4,0
KSM1-A,2020-081H,2026-06-18T14:27:37.278720,15.25977957,.00044582,36.8975,52.6081,311.7321,48.3047,0,U,46912,999,30939,.27310036E-3,.7093E-4,0
R2,2020-081J,2026-06-18T08:42:02.653344,15.25440507,.0009138,36.8985,54.0733,291.7931,68.1846,0,U,46913,999,31216,.22093513E-3,.5629E-4,0
KSM1-B,2020-081K,2026-06-18T09:49:24.893760,15.24522382,.0006829,36.9022,61.0388,289.0286,70.9723,0,U,46914,999,31237,.22679025E-3,.5619E-4,0
GONETS-M 20,2020-091A,2026-06-18T14:47:00.413664,12.42893412,.00212551,82.5052,301.5471,174.7975,185.3330,0,U,47227,999,25125,-.59823605E-4,.2E-7,0
GONETS-M 21,2020-091B,2026-06-18T14:09:22.652928,12.42886703,.00148286,82.4977,300.2696,187.7655,172.3198,0,U,47228,999,25124,.308804E-3,.53E-6,0
GONETS-M 22,2020-091C,2026-06-18T15:26:32.867808,12.42892713,.00222034,82.5034,301.1356,170.1868,189.9650,0,U,47229,999,25120,.68778257E-4,.19E-6,0
CUBEL,2021-006AM,2026-06-18T09:29:26.117088,15.41271823,.00073375,97.2326,219.9679,158.0430,202.1133,0,U,47448,999,29994,.3700236E-3,.15337E-3,0
ARKTIKA-M 1,2021-016A,2026-06-17T11:46:36.471360,2.00622504,.72885287,63.2922,57.5948,269.9420,14.6012,0,U,47719,999,3879,0,-.21E-5,0
STARLINK-2342,2021-021Z,2026-06-18T09:02:28.524192,15.81389551,.00017832,53.1544,142.1109,129.0601,231.0581,0,U,47883,999,29209,.67601754E-3,.13815E-2,0
GRUS-1B,2021-022C,2026-06-18T15:29:47.927040,14.98887536,.00153365,97.5402,52.7979,322.6056,37.4099,0,U,47934,999,28611,.31816579E-4,.328E-5,0
UNISAT-7,2021-022P,2026-06-18T11:00:21.876192,15.40496251,.00110394,97.3887,74.3961,74.9006,285.3461,0,U,47945,999,29005,.27810505E-3,.11219E-3,0
GLOBAL-9,2021-023G,2026-06-18T13:05:01.780800,15.46654442,.00046323,44.9804,242.8949,324.7391,35.3192,0,U,47971,999,29515,.33667664E-3,.16855E-3,0
AII-BRAVO,2021-034C,2026-06-18T10:03:17.201376,15.03491014,.00041022,97.5627,224.3015,253.0682,107.0094,0,U,48270,999,27980,.24423475E-3,.327E-4,0
TYVAK-182A,2021-034D,2026-06-18T03:03:33.694848,15.06170060,.00050113,97.5711,228.0286,338.7794,21.3225,0,U,48271,999,27997,.24494484E-3,.3526E-4,0
CSS (TIANHE),2021-035A,2026-06-18T13:50:23.178624,15.60863218,.0007383,41.4698,313.5456,89.2734,270.8951,0,U,48274,999,29338,.21350369E-3,.18077E-3,0
TYVAK-0130,2021-041BF,2026-06-18T00:38:25.584000,15.27570050,.00103168,52.9943,22.1876,164.5906,195.5407,0,U,48606,999,28051,.19607844E-3,.5014E-4,0
